{"type": "FeatureCollection", "features": [{"type": "Feature", "properties": {"MDName": "", "RockType": "Rhyolite tuff (Volcanogenic Massive Sulfides)", "Source": "VMS Deposits", "Province": ""}, "geometry": {"type": "Point", "coordinates": [65.0586111111, 28.8430555556]}}, {"type": "Feature", "properties": {"MDName": "", "RockType": "Hydrothermal Vein", "Source": "MMAJ Metallic Minerals", "Province": "Balochistan"}, "geometry": {"type": "Point", "coordinates": [64.4, 28.86666667]}}, {"type": "Feature", "properties": {"MDName": "", "RockType": "Porphyry", "Source": "MMAJ Metallic Minerals", "Province": "Balochistan"}, "geometry": {"type": "Point", "coordinates": [64.75, 28.95]}}, {"type": "Feature", "properties": {"MDName": "Copper Deposit", "RockType": "Sedimentary", "Source": "Mindat", "Province": ""}, "geometry": {"type": "Point", "coordinates": [64.5, 29.0]}}, {"type": "Feature", "properties": {"MDName": "", "RockType": "Porphyry", "Source": "MMAJ Metallic Minerals", "Province": "Balochistan"}, "geometry": {"type": "Point", "coordinates": [62.63333333, 29.01666667]}}, {"type": "Feature", "properties": {"MDName": "Chagai", "RockType": "Porphyry copper", "Source": "SWA Minerals", "Province": "Balochistan"}, "geometry": {"type": "Point", "coordinates": [62.594, 29.071]}}, {"type": "Feature", "properties": {"MDName": "Chagai", "RockType": "Porphyry copper", "Source": "SWA Minerals", "Province": "Balochistan"}, "geometry": {"type": "Point", "coordinates": [63.7436, 29.1114]}}, {"type": "Feature", "properties": {"MDName": "Chagai", "RockType": "Porphyry copper", "Source": "SWA Minerals", "Province": "Balochistan"}, "geometry": {"type": "Point", "coordinates": [62.2394, 29.1135]}}, {"type": "Feature", "properties": {"MDName": "Plio-Quaternary Bazman", "RockType": "Porphyry copper", "Source": "SWA Minerals", "Province": "Balochistan"}, "geometry": {"type": "Point", "coordinates": [62.8371, 29.12]}}, {"type": "Feature", "properties": {"MDName": "Chagai", "RockType": "Porphyry copper", "Source": "SWA Minerals", "Province": "Balochistan"}, "geometry": {"type": "Point", "coordinates": [62.1364, 29.0878]}}, {"type": "Feature", "properties": {"MDName": "Chagai", "RockType": "Porphyry copper", "Source": "SWA Minerals", "Province": "Balochistan"}, "geometry": {"type": "Point", "coordinates": [62.1271, 29.092]}}, {"type": "Feature", "properties": {"MDName": "Chagai", "RockType": "Porphyry copper", "Source": "SWA Minerals", "Province": "Balochistan"}, "geometry": {"type": "Point", "coordinates": [62.0959, 29.0932]}}, {"type": "Feature", "properties": {"MDName": "Chagai", "RockType": "Porphyry copper", "Source": "SWA Minerals", "Province": "Balochistan"}, "geometry": {"type": "Point", "coordinates": [62.1147, 29.0933]}}, {"type": "Feature", "properties": {"MDName": "Chagai", "RockType": "Porphyry copper", "Source": "SWA Minerals", "Province": "Balochistan"}, "geometry": {"type": "Point", "coordinates": [62.1601, 29.0952]}}, {"type": "Feature", "properties": {"MDName": "Chagai", "RockType": "Porphyry copper", "Source": "SWA Minerals", "Province": "Balochistan"}, "geometry": {"type": "Point", "coordinates": [62.0814, 29.1006]}}, {"type": "Feature", "properties": {"MDName": "Chagai", "RockType": "Porphyry copper", "Source": "SWA Minerals", "Province": "Balochistan"}, "geometry": {"type": "Point", "coordinates": [62.0783, 29.1044]}}, {"type": "Feature", "properties": {"MDName": "Chagai", "RockType": "Porphyry copper", "Source": "SWA Minerals", "Province": "Balochistan"}, "geometry": {"type": "Point", "coordinates": [62.0544, 29.1097]}}, {"type": "Feature", "properties": {"MDName": "Chagai", "RockType": "Porphyry copper", "Source": "SWA Minerals", "Province": "Balochistan"}, "geometry": {"type": "Point", "coordinates": [62.1017, 29.1122]}}, {"type": "Feature", "properties": {"MDName": "Chagai", "RockType": "Porphyry copper", "Source": "SWA Minerals", "Province": "Balochistan"}, "geometry": {"type": "Point", "coordinates": [62.1169, 29.1146]}}, {"type": "Feature", "properties": {"MDName": "Chagai", "RockType": "Porphyry copper", "Source": "SWA Minerals", "Province": "Balochistan"}, "geometry": {"type": "Point", "coordinates": [62.1372, 29.1196]}}, {"type": "Feature", "properties": {"MDName": "", "RockType": "Porphyry copper deposit", "Source": "Mindat", "Province": "Balochistan"}, "geometry": {"type": "Point", "coordinates": [62.194166, 29.1225]}}, {"type": "Feature", "properties": {"MDName": "Chagai", "RockType": "Porphyry copper", "Source": "SWA Minerals", "Province": "Balochistan"}, "geometry": {"type": "Point", "coordinates": [62.0794, 29.1233]}}, {"type": "Feature", "properties": {"MDName": "Chagai", "RockType": "Porphyry copper", "Source": "SWA Minerals", "Province": "Balochistan"}, "geometry": {"type": "Point", "coordinates": [62.0511, 29.1267]}}, {"type": "Feature", "properties": {"MDName": "", "RockType": "Hydrothermal", "Source": "USGS Minerals", "Province": ""}, "geometry": {"type": "Point", "coordinates": [62.0333, 29.13330078125]}}, {"type": "Feature", "properties": {"MDName": "Chagai", "RockType": "Porphyry copper", "Source": "SWA Minerals", "Province": "Balochistan"}, "geometry": {"type": "Point", "coordinates": [62.0622, 29.1339]}}, {"type": "Feature", "properties": {"MDName": "Chagai", "RockType": "Porphyry copper", "Source": "SWA Minerals", "Province": "Balochistan"}, "geometry": {"type": "Point", "coordinates": [62.0672, 29.1422]}}, {"type": "Feature", "properties": {"MDName": "Chagai", "RockType": "Porphyry copper", "Source": "SWA Minerals", "Province": "Balochistan"}, "geometry": {"type": "Point", "coordinates": [62.0681, 29.1614]}}, {"type": "Feature", "properties": {"MDName": "Chagai", "RockType": "Porphyry copper", "Source": "SWA Minerals", "Province": "Balochistan"}, "geometry": {"type": "Point", "coordinates": [61.646, 29.2265]}}, {"type": "Feature", "properties": {"MDName": "Chagai", "RockType": "Porphyry copper", "Source": "SWA Minerals", "Province": "Balochistan"}, "geometry": {"type": "Point", "coordinates": [61.8448, 29.2279]}}, {"type": "Feature", "properties": {"MDName": "Chagai", "RockType": "Porphyry copper", "Source": "SWA Minerals", "Province": "Balochistan"}, "geometry": {"type": "Point", "coordinates": [62.2058, 29.1325]}}, {"type": "Feature", "properties": {"MDName": "Chagai", "RockType": "Porphyry copper", "Source": "SWA Minerals", "Province": "Balochistan"}, "geometry": {"type": "Point", "coordinates": [62.2005, 29.1548]}}, {"type": "Feature", "properties": {"MDName": "Chagai", "RockType": "Porphyry copper", "Source": "SWA Minerals", "Province": "Balochistan"}, "geometry": {"type": "Point", "coordinates": [63.7275, 29.2075]}}, {"type": "Feature", "properties": {"MDName": "Chagai", "RockType": "Porphyry copper", "Source": "SWA Minerals", "Province": "Balochistan"}, "geometry": {"type": "Point", "coordinates": [63.9006, 29.2342]}}, {"type": "Feature", "properties": {"MDName": "", "RockType": "Porphyry", "Source": "MMAJ Metallic Minerals", "Province": "Balochistan"}, "geometry": {"type": "Point", "coordinates": [63.58333333, 29.25]}}, {"type": "Feature", "properties": {"MDName": "Chagai", "RockType": "Porphyry copper", "Source": "SWA Minerals", "Province": "Balochistan"}, "geometry": {"type": "Point", "coordinates": [63.2892, 29.3719]}}, {"type": "Feature", "properties": {"MDName": "Chagai", "RockType": "Porphyry copper", "Source": "SWA Minerals", "Province": "Balochistan"}, "geometry": {"type": "Point", "coordinates": [63.608, 29.395]}}, {"type": "Feature", "properties": {"MDName": "Chagai", "RockType": "Porphyry copper", "Source": "SWA Minerals", "Province": "Balochistan"}, "geometry": {"type": "Point", "coordinates": [64.4712, 29.4327]}}, {"type": "Feature", "properties": {"MDName": "Cu-6", "RockType": "Sedimentary Sandstone", "Source": "(IR)PK-4", "Province": "Balochistan"}, "geometry": {"type": "Point", "coordinates": [63.38333333333333, 29.45]}}, {"type": "Feature", "properties": {"MDName": "", "RockType": "Hydrothermal Vein", "Source": "MMAJ Metallic Minerals", "Province": "Balochistan"}, "geometry": {"type": "Point", "coordinates": [64.41666667, 29.45]}}, {"type": "Feature", "properties": {"MDName": "Cape Gadani", "RockType": "Stockwork", "Source": "MRDS Minerals", "Province": ""}, "geometry": {"type": "Point", "coordinates": [61.61755, 29.23226]}}, {"type": "Feature", "properties": {"MDName": "Chagai", "RockType": "Porphyry copper", "Source": "SWA Minerals", "Province": "Balochistan"}, "geometry": {"type": "Point", "coordinates": [61.9172, 29.2439]}}, {"type": "Feature", "properties": {"MDName": "Chagai", "RockType": "Porphyry copper", "Source": "SWA Minerals", "Province": "Balochistan"}, "geometry": {"type": "Point", "coordinates": [61.615, 29.2506]}}, {"type": "Feature", "properties": {"MDName": "Saindak", "RockType": "Volcanic Arc", "Source": "Mindat", "Province": "Balochistan"}, "geometry": {"type": "Point", "coordinates": [61.56389, 29.27039]}}, {"type": "Feature", "properties": {"MDName": "Saindak", "RockType": "Volcanic Arc", "Source": "Mindat", "Province": "Balochistan"}, "geometry": {"type": "Point", "coordinates": [61.61321, 29.27039]}}, {"type": "Feature", "properties": {"MDName": "", "RockType": "Porphyry copper deposit", "Source": "Mindat", "Province": "Punjab"}, "geometry": {"type": "Point", "coordinates": [61.58444444, 29.27055556]}}, {"type": "Feature", "properties": {"MDName": "", "RockType": "Hydrothermal", "Source": "USGS Minerals", "Province": ""}, "geometry": {"type": "Point", "coordinates": [61.6056, 29.27079963684082]}}, {"type": "Feature", "properties": {"MDName": "", "RockType": "Porphyry", "Source": "MMAJ Metallic Minerals", "Province": "Balochistan"}, "geometry": {"type": "Point", "coordinates": [61.55, 29.3]}}, {"type": "Feature", "properties": {"MDName": "", "RockType": "Hydrothermal Vein", "Source": "MMAJ Metallic Minerals", "Province": "Balochistan"}, "geometry": {"type": "Point", "coordinates": [61.38333333, 29.48333333]}}, {"type": "Feature", "properties": {"MDName": "Cu-2", "RockType": "Sedimentary Sandstone", "Source": "(IR)PK-4", "Province": "Balochistan"}, "geometry": {"type": "Point", "coordinates": [60.93333333333333, 29.78333333333333]}}, {"type": "Feature", "properties": {"MDName": "Chagai", "RockType": "Porphyry copper", "Source": "SWA Minerals", "Province": "Balochistan"}, "geometry": {"type": "Point", "coordinates": [64.3774, 29.4556]}}, {"type": "Feature", "properties": {"MDName": "Chagai", "RockType": "Porphyry copper", "Source": "SWA Minerals", "Province": "Balochistan"}, "geometry": {"type": "Point", "coordinates": [64.4927, 29.4604]}}, {"type": "Feature", "properties": {"MDName": "Chagai", "RockType": "Porphyry copper", "Source": "SWA Minerals", "Province": "Balochistan"}, "geometry": {"type": "Point", "coordinates": [64.2588, 29.4957]}}, {"type": "Feature", "properties": {"MDName": "", "RockType": "Hydrothermal", "Source": "USGS Minerals", "Province": ""}, "geometry": {"type": "Point", "coordinates": [64.5042, 29.55439949035645]}}, {"type": "Feature", "properties": {"MDName": "Chagai", "RockType": "Porphyry copper", "Source": "SWA Minerals", "Province": "Balochistan"}, "geometry": {"type": "Point", "coordinates": [64.604, 29.556]}}, {"type": "Feature", "properties": {"MDName": "Copper Deposit", "RockType": "Sedimentary", "Source": "Mindat", "Province": ""}, "geometry": {"type": "Point", "coordinates": [64.5, 29.9]}}, {"type": "Feature", "properties": {"MDName": "", "RockType": "Hydrothermal Vein", "Source": "MMAJ Metallic Minerals", "Province": "Balochistan"}, "geometry": {"type": "Point", "coordinates": [67.73333333, 30.38333333]}}, {"type": "Feature", "properties": {"MDName": "Cu-14", "RockType": "Sedimentary Sandstone", "Source": "(IR)PK-4", "Province": "Balochistan"}, "geometry": {"type": "Point", "coordinates": [67.78333333333333, 30.55]}}, {"type": "Feature", "properties": {"MDName": "", "RockType": "Hydrothermal Vein", "Source": "MMAJ Metallic Minerals", "Province": "Balochistan"}, "geometry": {"type": "Point", "coordinates": [66.58333333, 30.85]}}]}