{"type": "FeatureCollection", "features": [{"type": "Feature", "properties": {"slip_type": "Anticline", "fs_name": "Makran Thrust Belt", "catalog_na": "HimaTibetMap"}, "geometry": {"type": "LineString", "coordinates": [[66.93680297444237, 25.999759605214493], [66.79143625120041, 26.3797519152147], [66.70345938304291, 26.693955015777192]]}}, {"type": "Feature", "properties": {"slip_type": "Anticline", "fs_name": "Makran Thrust Belt", "catalog_na": "HimaTibetMap"}, "geometry": {"type": "LineString", "coordinates": [[67.18733215790915, 26.184945992865956], [67.21048045636559, 25.999759605214493]]}}, {"type": "Feature", "properties": {"slip_type": "Anticline", "fs_name": "Makran Thrust Belt", "catalog_na": "HimaTibetMap"}, "geometry": {"type": "LineString", "coordinates": [[66.92968561544791, 26.279206923034703], [67.04279873165041, 26.128389434764706], [67.1056393517629, 26.00899225655096]]}}, {"type": "Feature", "properties": {"slip_type": "Syncline", "fs_name": "", "catalog_na": "HimaTibetMap"}, "geometry": {"type": "LineString", "coordinates": [[66.10492391521717, 26.12769206194315], [66.08934263814896, 25.999759605214493]]}}, {"type": "Feature", "properties": {"slip_type": "Reverse", "fs_name": "", "catalog_na": "EMME"}, "geometry": {"type": "LineString", "coordinates": [[61.52544382242507, 25.999759605214493], [60.987068, 26.054865], [60.684066, 26.060908]]}}, {"type": "Feature", "properties": {"slip_type": "Syncline", "fs_name": "", "catalog_na": "HimaTibetMap"}, "geometry": {"type": "LineString", "coordinates": [[65.79182650453316, 26.13734870785845], [65.72044267435825, 26.096897870759335], [65.63240261714253, 26.06120595567188], [65.59195178004342, 26.05168811164856], [65.51188937723359, 25.999759605214493]]}}, {"type": "Feature", "properties": {"slip_type": "Anticline", "fs_name": "Makran Thrust Belt", "catalog_na": "HimaTibetMap"}, "geometry": {"type": "LineString", "coordinates": [[61.13932375340226, 26.093542357582248], [61.334067755018424, 26.068575177887865], [61.473883961306946, 26.083555485704494]]}}, {"type": "Feature", "properties": {"slip_type": "Reverse", "fs_name": "", "catalog_na": "HimaTibetMap"}, "geometry": {"type": "LineString", "coordinates": [[62.11746628937732, 26.15229221869606], [62.442976554975075, 26.169424337938096], [62.47533722465431, 26.167520769133432], [62.55338354564566, 26.144677943477575], [62.62762272902745, 26.144677943477575], [62.67330838033939, 26.135160099454254], [62.88270094885246, 26.119931549016826], [63.451868021447126, 26.102799429774848], [63.5603714433131, 26.104702998579455], [63.754725818269264, 26.091378016946862], [63.81183288240919, 26.091378016946862], [63.916529166665725, 26.104702998579455], [63.98125050602414, 26.12183511782149], [64.0535861206015, 26.12754582423554], [64.12201941912912, 26.14144187650959]]}}, {"type": "Feature", "properties": {"slip_type": "Syncline", "fs_name": "", "catalog_na": "HimaTibetMap"}, "geometry": {"type": "LineString", "coordinates": [[65.86520792292141, 25.999759605214493], [66.03829900705392, 26.176471012562672], [66.06447307811806, 26.253803495252157], [66.08469849666761, 26.470334446782715]]}}, {"type": "Feature", "properties": {"slip_type": "Reverse", "fs_name": "", "catalog_na": "EMME"}, "geometry": {"type": "LineString", "coordinates": [[65.769335, 26.898424], [65.690735, 26.585839], [65.594833, 26.39257], [65.474454, 26.229775], [65.332541, 26.098203], [65.179296, 26.025412], [65.07384654169365, 25.999759605214493]]}}, {"type": "Feature", "properties": {"slip_type": "Anticline", "fs_name": "Makran Thrust Belt", "catalog_na": "HimaTibetMap"}, "geometry": {"type": "LineString", "coordinates": [[64.8644269638037, 26.118509537276626], [65.04918409354211, 26.21338482011527], [65.16403312013625, 26.328233846709416]]}}, {"type": "Feature", "properties": {"slip_type": "Reverse", "fs_name": "", "catalog_na": "EMME"}, "geometry": {"type": "LineString", "coordinates": [[59.999735467740614, 26.16745287299879], [60.183164, 26.128934]]}}, {"type": "Feature", "properties": {"slip_type": "Reverse", "fs_name": "", "catalog_na": "EMME"}, "geometry": {"type": "LineString", "coordinates": [[60.10936, 26.449433], [60.142832, 26.408174], [60.17511, 26.380992], [60.24816, 26.338521], [60.445227, 26.275664], [60.579435, 26.263772], [60.70515, 26.275664], [60.835961, 26.243386], [60.873336, 26.245085], [60.951483, 26.234892], [60.992255, 26.239988], [61.073799, 26.231494], [61.145151, 26.241687], [61.233491, 26.241687], [61.274263, 26.234891], [61.35241, 26.255278], [61.486619, 26.243386], [61.52909, 26.246783], [61.571561, 26.239988], [61.607237, 26.246783], [61.782218, 26.233193], [61.894342, 26.239988]]}}, {"type": "Feature", "properties": {"slip_type": "Anticline", "fs_name": "Makran Thrust Belt", "catalog_na": "HimaTibetMap"}, "geometry": {"type": "LineString", "coordinates": [[62.332754942793606, 26.41811569360918], [62.83709197262007, 26.532964720203328], [63.01186223048073, 26.498010668631196]]}}, {"type": "Feature", "properties": {"slip_type": "Reverse", "fs_name": "", "catalog_na": "EMME"}, "geometry": {"type": "LineString", "coordinates": [[60.851384, 26.563156], [61.083576, 26.497685], [61.577744, 26.423136], [62.073711, 26.486061], [62.389648, 26.477244]]}}, {"type": "Feature", "properties": {"slip_type": "Anticline", "fs_name": "Makran Thrust Belt", "catalog_na": "HimaTibetMap"}, "geometry": {"type": "LineString", "coordinates": [[63.940641315111655, 26.40812882173143], [64.28518839489409, 26.468050052997942], [64.59977485904328, 26.537958156142203], [64.9293416310091, 26.632833438980846]]}}, {"type": "Feature", "properties": {"slip_type": "Anticline", "fs_name": "Makran Thrust Belt", "catalog_na": "HimaTibetMap"}, "geometry": {"type": "LineString", "coordinates": [[61.16429093309664, 26.532964720203328], [61.52881175663458, 26.512990976447824], [61.778483553578376, 26.5179844123867]]}}, {"type": "Feature", "properties": {"slip_type": "Sinistral-Reverse", "fs_name": "", "catalog_na": "EMME"}, "geometry": {"type": "LineString", "coordinates": [[64.642978, 26.659927], [64.50403, 26.606403], [63.696016, 26.422881], [63.313112, 26.388007], [63.047736, 26.420768], [62.69279, 26.404949], [62.415256, 26.43303]]}}, {"type": "Feature", "properties": {"slip_type": "Anticline", "fs_name": "Makran Thrust Belt", "catalog_na": "HimaTibetMap"}, "geometry": {"type": "LineString", "coordinates": [[62.946947563275344, 26.56791877177546], [63.57112705563484, 26.557931899897707]]}}, {"type": "Feature", "properties": {"slip_type": "Sinistral-Reverse", "fs_name": "", "catalog_na": "EMME"}, "geometry": {"type": "LineString", "coordinates": [[59.999735467740614, 26.54481751754081], [60.074163, 26.578249], [60.195194, 26.650753], [60.315352, 26.694918], [60.397659, 26.746244]]}}, {"type": "Feature", "properties": {"slip_type": "Anticline", "fs_name": "Makran Thrust Belt", "catalog_na": "HimaTibetMap"}, "geometry": {"type": "LineString", "coordinates": [[63.85075946821189, 26.55293846395883], [64.45995865275475, 26.682767798369607], [64.65470265437091, 26.73769559369724]]}}, {"type": "Feature", "properties": {"slip_type": "Anticline", "fs_name": "Makran Thrust Belt", "catalog_na": "HimaTibetMap"}, "geometry": {"type": "LineString", "coordinates": [[62.22789278807721, 26.717721849941736], [62.52250550847089, 26.77764308120825], [62.8320985366812, 26.797616824963754], [63.670995774412354, 26.792623389024875], [63.975595366683784, 26.807603696841504], [64.12040500891119, 26.83756431247476]]}}, {"type": "Feature", "properties": {"slip_type": "Reverse", "fs_name": "", "catalog_na": "HimaTibetMap"}, "geometry": {"type": "LineString", "coordinates": [[65.29402888620336, 26.371587310761754], [65.35767946810932, 26.437617353673545], [65.40824301448322, 26.476283595018288], [65.47903197940667, 26.55659040396506], [65.53798312582603, 26.60536935458458], [65.53798312582603, 26.64225100017495], [65.5552342181183, 26.679132645765492], [65.61138949785601, 26.747542149683113], [65.62507139863953, 26.77312135549579], [65.66254790948136, 26.812977327343447], [65.6887219805455, 26.881981696512526], [65.70597307283776, 26.901612249810626], [65.72381903038149, 26.93968362590391], [65.76248527172623, 26.98429851976323], [65.78033122926996, 27.031292874628377], [65.79341826480203, 27.041405583903156], [65.82970504514094, 27.098512648043084], [65.8251840692298, 27.167517017212163], [65.84945457148928, 27.22605175795553]]}}, {"type": "Feature", "properties": {"slip_type": "Anticline", "fs_name": "Makran Thrust Belt", "catalog_na": "HimaTibetMap"}, "geometry": {"type": "LineString", "coordinates": [[65.26889527485265, 26.612859695225342], [65.52356050773533, 26.822584004658133], [65.61843579057397, 26.99236082657991]]}}, {"type": "Feature", "properties": {"slip_type": "Sinistral-Reverse", "fs_name": "", "catalog_na": "EMME"}, "geometry": {"type": "LineString", "coordinates": [[59.999735467740614, 26.785184241288434], [60.142165, 26.76396]]}}, {"type": "Feature", "properties": {"slip_type": "Reverse", "fs_name": "", "catalog_na": "EMME"}, "geometry": {"type": "LineString", "coordinates": [[65.188815, 27.051122], [65.159914, 27.009879], [65.082512, 26.951112], [64.842055, 26.802654], [64.765001, 26.769666], [64.608145, 26.717439]]}}, {"type": "Feature", "properties": {"slip_type": "Reverse", "fs_name": "", "catalog_na": "EMME"}, "geometry": {"type": "LineString", "coordinates": [[61.651966, 26.96733], [61.842856, 26.924882], [62.077874, 26.825778], [62.143908, 26.817025], [62.97916, 26.81035], [63.2958, 26.839507], [63.431866, 26.894045], [63.57342, 26.925331]]}}, {"type": "Feature", "properties": {"slip_type": "Reverse", "fs_name": "", "catalog_na": "EMME"}, "geometry": {"type": "LineString", "coordinates": [[61.274487, 27.115957], [61.33113, 27.10281], [61.392399, 27.068272], [61.43154, 26.98175], [61.472741, 26.950849], [61.509871, 26.897386], [61.645335, 26.890697], [61.686987, 26.870507], [61.71892, 26.835508], [61.769389, 26.806645], [61.849367, 26.721785], [61.896194, 26.716768], [61.998056, 26.724243], [62.045037, 26.715095], [62.130329, 26.711751], [62.34105, 26.71844], [62.384532, 26.711751], [62.434704, 26.713423], [62.66215, 26.755233], [62.817682, 26.765267], [63.028872, 26.761441], [63.087827, 26.769564], [63.198412, 26.762297]]}}, {"type": "Feature", "properties": {"slip_type": "Sinistral-Reverse", "fs_name": "", "catalog_na": "EMME"}, "geometry": {"type": "LineString", "coordinates": [[65.829105, 27.804125], [65.673895, 27.227334], [65.346978, 26.778743], [64.944424, 26.432889], [64.39503, 26.163302], [63.980365, 26.080794], [63.492191, 26.078658], [63.119044, 26.101846], [62.718147, 26.112907], [62.238967, 26.140783]]}}, {"type": "Feature", "properties": {"slip_type": "Sinistral-Reverse", "fs_name": "", "catalog_na": "EMME"}, "geometry": {"type": "LineString", "coordinates": [[60.345559, 26.832417], [60.490922, 26.908085], [60.610399, 26.933972], [60.747655, 26.999449], [60.945575, 27.041557], [61.091556, 27.106325], [61.19248, 27.115169]]}}, {"type": "Feature", "properties": {"slip_type": "Reverse", "fs_name": "", "catalog_na": "EMME"}, "geometry": {"type": "LineString", "coordinates": [[61.850595, 27.03025], [62.114123, 27.020848], [62.466479, 26.948344], [62.712481, 26.952464], [62.985714, 26.934096], [63.424124, 27.009394], [63.735503, 27.031231]]}}, {"type": "Feature", "properties": {"slip_type": "Sinistral-Reverse", "fs_name": "", "catalog_na": "EMME"}, "geometry": {"type": "LineString", "coordinates": [[65.525773, 27.639019], [65.429926, 27.540239], [65.290966, 27.412761], [65.096219, 27.260652], [64.989968, 27.199497], [64.873733, 27.118596], [64.761435, 27.081333], [64.559844, 26.978219], [64.383452, 26.928951], [64.073079, 26.86033], [63.810775, 26.812195], [63.490889, 26.806687]]}}, {"type": "Feature", "properties": {"slip_type": "Anticline", "fs_name": "Makran Thrust Belt", "catalog_na": "HimaTibetMap"}, "geometry": {"type": "LineString", "coordinates": [[64.20529341987208, 26.84755118435251], [64.73459762939292, 27.02232144221317], [65.13906594044188, 27.266999803218088], [65.35378368581354, 27.466737240773128], [65.56850143118521, 27.64650093457266]]}}, {"type": "Feature", "properties": {"slip_type": "Reverse", "fs_name": "", "catalog_na": "EMME"}, "geometry": {"type": "LineString", "coordinates": [[66.531322, 27.680745], [66.601141, 27.524383], [66.60665, 27.149817], [66.683525, 26.871272], [66.728715, 26.80032], [66.771085, 26.469879], [66.95808492739431, 25.999759605214493]]}}, {"type": "Feature", "properties": {"slip_type": "Anticline", "fs_name": "Makran Thrust Belt", "catalog_na": "HimaTibetMap"}, "geometry": {"type": "LineString", "coordinates": [[67.50813000942627, 25.999759605214493], [67.4072743283029, 26.140957558787207], [67.23760465399916, 26.41117222527095], [67.17476403388666, 26.574557837563443], [67.1684799718754, 26.920181248182185]]}}, {"type": "Feature", "properties": {"slip_type": "Sinistral-Reverse", "fs_name": "", "catalog_na": "EMME"}, "geometry": {"type": "LineString", "coordinates": [[67.35191540303852, 25.999759605214493], [67.254744, 26.218603], [67.160554, 26.569875], [67.144489, 26.72824], [67.174259, 27.120876], [67.139449, 27.316566]]}}, {"type": "Feature", "properties": {"slip_type": "Anticline", "fs_name": "Makran Thrust Belt", "catalog_na": "HimaTibetMap"}, "geometry": {"type": "LineString", "coordinates": [[66.77258406516667, 26.901329062148434], [66.92340155343666, 26.637398457675943], [67.04279873165041, 26.499149093428446], [67.13705966181915, 26.335763481135952]]}}, {"type": "Feature", "properties": {"slip_type": "Sinistral-Reverse", "fs_name": "", "catalog_na": "EMME"}, "geometry": {"type": "LineString", "coordinates": [[66.16600197774062, 25.999759605214493], [66.167132, 26.124879], [66.094335, 26.474507], [66.073929, 26.87089], [66.16929, 27.949606]]}}, {"type": "Feature", "properties": {"slip_type": "Anticline", "fs_name": "Makran Thrust Belt", "catalog_na": "HimaTibetMap"}, "geometry": {"type": "LineString", "coordinates": [[67.43241057634789, 28.019892100150905], [67.4198424523254, 27.667984627520916], [67.26274090204416, 27.45432651913842], [67.25017277802165, 27.39776996103717]]}}, {"type": "Feature", "properties": {"slip_type": "Sinistral", "fs_name": "", "catalog_na": "EMME"}, "geometry": {"type": "LineString", "coordinates": [[65.927367, 26.647619], [65.858847, 26.922116], [65.901347, 27.816047], [66.077523, 28.756071], [66.13694, 28.947256], [66.248201, 29.135248]]}}, {"type": "Feature", "properties": {"slip_type": "Sinistral-Reverse", "fs_name": "", "catalog_na": "EMME"}, "geometry": {"type": "LineString", "coordinates": [[67.183511, 27.561715], [67.034448, 27.983873], [67.058221, 28.082237], [67.020018, 28.312333], [67.068482, 28.427988], [67.157278, 28.485374]]}}, {"type": "Feature", "properties": {"slip_type": "Reverse", "fs_name": "", "catalog_na": "HimaTibetMap"}, "geometry": {"type": "LineString", "coordinates": [[63.26110663260971, 27.20437090242399], [63.3838868205105, 27.18581110657857], [63.54378660010235, 27.19152181299262], [63.616598106880645, 27.20008787261355], [63.71796314572913, 27.222930698269636], [63.773642533265445, 27.227213728080073], [63.800768388732024, 27.23863514090806], [63.87072454230332, 27.25291190694304], [63.92212090002937, 27.285748468823442], [64.02348593887763, 27.318585030703844], [64.11599938278431, 27.325723413721335], [64.14026988504384, 27.33571714994588], [64.21165371521874, 27.34856623937742], [64.27732683897955, 27.372836741636945], [64.33300622651609, 27.384258154464874], [64.41723914612254, 27.41995006955233]]}}, {"type": "Feature", "properties": {"slip_type": "Anticline", "fs_name": "Makran Thrust Belt", "catalog_na": "HimaTibetMap"}, "geometry": {"type": "LineString", "coordinates": [[63.75588418537325, 27.062268929724176], [64.23525403550533, 27.237039187584834], [64.78952542472057, 27.481717548589753], [65.0741512732365, 27.58158626736727], [65.25391496703602, 27.70642216583917], [65.34879024987467, 27.786317140861186]]}}, {"type": "Feature", "properties": {"slip_type": "Reverse", "fs_name": "", "catalog_na": "HimaTibetMap"}, "geometry": {"type": "LineString", "coordinates": [[61.75723968770478, 27.678835426986666], [61.78936241128349, 27.637789724636093], [61.817915943353455, 27.58425185200491], [61.876807603247755, 27.520006404847493], [61.89465356079148, 27.487883681268784], [61.93213007163331, 27.443268787409465], [62.0177906678432, 27.386161723269538], [62.07489773198313, 27.327270063375238], [62.156989136684274, 27.280870573761547], [62.34437169089341, 27.234471084147856]]}}, {"type": "Feature", "properties": {"slip_type": "Dextral-Reverse", "fs_name": "", "catalog_na": "EMME"}, "geometry": {"type": "LineString", "coordinates": [[61.019279, 27.869093], [61.167839, 27.75302], [61.31488, 27.566932], [61.476005, 27.376989], [61.573946, 27.217205], [61.63703, 27.187164]]}}, {"type": "Feature", "properties": {"slip_type": "Reverse", "fs_name": "", "catalog_na": "HimaTibetMap"}, "geometry": {"type": "LineString", "coordinates": [[61.73582453865231, 27.64849729916233], [61.74474751742417, 27.61637457558362], [61.76080887921353, 27.58960563926803], [61.825054326370946, 27.536067766636847], [61.83576190089718, 27.50394504305814], [61.85539245419528, 27.480745298251293], [61.89286896503711, 27.455760957690075]]}}, {"type": "Feature", "properties": {"slip_type": "Reverse", "fs_name": "", "catalog_na": "HimaTibetMap"}, "geometry": {"type": "LineString", "coordinates": [[65.7086400520484, 27.511537506550894], [65.70507086053965, 27.573403492702482], [65.72648600959212, 27.6376489398599], [65.72767574009504, 27.682858698970676]]}}, {"type": "Feature", "properties": {"slip_type": "Dextral", "fs_name": "", "catalog_na": "EMME"}, "geometry": {"type": "LineString", "coordinates": [[60.515988, 28.079327], [60.596331, 27.996924], [60.702997, 27.904192], [60.873963, 27.649041], [61.019528, 27.474104], [61.147252, 27.259858], [61.270752, 27.177524]]}}, {"type": "Feature", "properties": {"slip_type": "Anticline", "fs_name": "Makran Thrust Belt", "catalog_na": "HimaTibetMap"}, "geometry": {"type": "LineString", "coordinates": [[64.21528029174983, 27.51167816422301], [64.48991926838801, 27.546632215795142], [64.69465014188192, 27.661481242389286], [64.78453198878168, 27.766343397105683]]}}, {"type": "Feature", "properties": {"slip_type": "Dextral-Reverse", "fs_name": "", "catalog_na": "EMME"}, "geometry": {"type": "LineString", "coordinates": [[60.276436, 28.233366], [60.298031, 28.138194], [60.377666, 27.88276], [60.362936, 27.660151], [60.40875, 27.491761], [60.370745, 27.434989], [60.347057, 27.321847]]}}, {"type": "Feature", "properties": {"slip_type": "Anticline", "fs_name": "Makran Thrust Belt", "catalog_na": "HimaTibetMap"}, "geometry": {"type": "LineString", "coordinates": [[65.17901342795288, 27.51167816422301], [65.39373117332455, 27.73138934553355], [65.59846204681847, 27.901166167455333], [65.65838327808497, 28.11089047688812]]}}, {"type": "Feature", "properties": {"slip_type": "Reverse", "fs_name": "", "catalog_na": "HimaTibetMap"}, "geometry": {"type": "LineString", "coordinates": [[65.7871622652408, 27.790529309484498], [65.77407522970873, 27.879759097203134], [65.76574711618832, 27.89760505474686], [65.76336765518249, 28.00587053051214], [65.7479011586446, 28.043941906605426], [65.75147035015334, 28.083203013201626], [65.74195250613002, 28.1438792688503]]}}, {"type": "Feature", "properties": {"slip_type": "Dextral-Reverse", "fs_name": "", "catalog_na": "EMME"}, "geometry": {"type": "LineString", "coordinates": [[61.527804, 28.842967], [61.588567, 28.741382], [61.599096, 28.710591], [61.520061, 28.421348], [61.534719, 28.279848], [61.569613, 28.146689], [61.665885, 28.007944], [61.920723, 27.833804], [62.120347, 27.621439], [62.653023, 27.222375], [62.879959, 27.187863], [63.008732, 27.189273], [63.353656, 27.287829], [63.579735, 27.371377]]}}, {"type": "Feature", "properties": {"slip_type": "Anticline", "fs_name": "Makran Thrust Belt", "catalog_na": "HimaTibetMap"}, "geometry": {"type": "LineString", "coordinates": [[65.11909219668637, 27.78132370492231], [65.39373117332455, 27.94111365496634], [65.5085801999187, 28.070942989377112], [65.68834389371823, 28.365555709770792]]}}, {"type": "Feature", "properties": {"slip_type": "Anticline", "fs_name": "Makran Thrust Belt", "catalog_na": "HimaTibetMap"}, "geometry": {"type": "LineString", "coordinates": [[64.60976173092102, 28.44045724885393], [65.15404624825851, 28.6751487379811]]}}, {"type": "Feature", "properties": {"slip_type": "Anticline", "fs_name": "Makran Thrust Belt", "catalog_na": "HimaTibetMap"}, "geometry": {"type": "LineString", "coordinates": [[63.92066757135615, 28.450444120731685], [64.56482080747115, 28.705109353614358], [64.94432193882571, 28.780010892697494], [65.14405937638075, 28.799984636452997]]}}, {"type": "Feature", "properties": {"slip_type": "Anticline", "fs_name": "Makran Thrust Belt", "catalog_na": "HimaTibetMap"}, "geometry": {"type": "LineString", "coordinates": [[65.20398060764727, 28.874886175536137], [65.42369178895781, 29.009708945885787], [65.73328481716811, 29.144531716235438]]}}, {"type": "Feature", "properties": {"slip_type": "Dextral", "fs_name": "", "catalog_na": "EMME"}, "geometry": {"type": "LineString", "coordinates": [[59.999735467740614, 29.084638927550312], [60.045575, 29.009332], [60.169103, 28.900894], [60.212203, 28.738291], [60.231793, 28.530629], [60.288607, 28.415044]]}}, {"type": "Feature", "properties": {"slip_type": "Anticline", "fs_name": "Makran Thrust Belt", "catalog_na": "HimaTibetMap"}, "geometry": {"type": "LineString", "coordinates": [[67.33814964617916, 28.37494160378652], [67.22503652997666, 28.192703805460276], [67.09935528975167, 28.085874751269028]]}}, {"type": "Feature", "properties": {"slip_type": "Sinistral-Reverse", "fs_name": "", "catalog_na": "EMME"}, "geometry": {"type": "LineString", "coordinates": [[67.396875, 28.110415], [67.359273, 28.294106], [67.322399, 28.686931], [67.365438, 28.810728], [67.450798, 28.91735], [67.536933, 29.250467]]}}, {"type": "Feature", "properties": {"slip_type": "Anticline", "fs_name": "Makran Thrust Belt", "catalog_na": "HimaTibetMap"}, "geometry": {"type": "LineString", "coordinates": [[67.41984245232541, 28.997063742900252], [67.33814964617916, 28.846246254630255], [67.25017277802166, 28.751985324461508]]}}, {"type": "Feature", "properties": {"slip_type": "Anticline", "fs_name": "Makran Thrust Belt", "catalog_na": "HimaTibetMap"}, "geometry": {"type": "LineString", "coordinates": [[67.4324105763479, 29.141597169159], [67.33814964617916, 28.946791246810253], [67.30672933612291, 28.846246254630255]]}}, {"type": "Feature", "properties": {"slip_type": "Anticline", "fs_name": "Makran Thrust Belt", "catalog_na": "HimaTibetMap"}, "geometry": {"type": "LineString", "coordinates": [[67.32558152215667, 29.568913385923988], [67.30044527411167, 29.304982781451493], [67.23132059198791, 29.09760873508025], [67.19990028193166, 28.865098440664006]]}}, {"type": "Feature", "properties": {"slip_type": "Reverse", "fs_name": "", "catalog_na": "EMME"}, "geometry": {"type": "LineString", "coordinates": [[67.29084, 28.898833], [67.347829, 29.152194], [67.33066, 29.240241], [67.370036, 29.370378], [67.378654, 29.704574]]}}, {"type": "Feature", "properties": {"slip_type": "Sinistral-Reverse", "fs_name": "", "catalog_na": "EMME"}, "geometry": {"type": "LineString", "coordinates": [[66.243929, 28.965037], [66.406767, 29.274089], [66.565582, 29.832199], [66.708231, 30.001388]]}}, {"type": "Feature", "properties": {"slip_type": "Sinistral-Reverse", "fs_name": "", "catalog_na": "EMME"}, "geometry": {"type": "LineString", "coordinates": [[65.670809, 27.786014], [65.68007, 28.086645], [65.761119, 28.428426], [65.902092, 29.106738], [66.09649, 29.898789], [66.221798, 30.265149], [66.5158, 30.811395], [66.721529, 31.453885]]}}, {"type": "Feature", "properties": {"slip_type": "Anticline", "fs_name": "Makran Thrust Belt", "catalog_na": "HimaTibetMap"}, "geometry": {"type": "LineString", "coordinates": [[67.4324105763479, 29.487220579777738], [67.50781932048291, 29.638038068047734], [67.46383088640415, 29.857980238441478]]}}, {"type": "Feature", "properties": {"slip_type": "Anticline", "fs_name": "", "catalog_na": "HimaTibetMap"}, "geometry": {"type": "LineString", "coordinates": [[66.69717532103168, 29.46208433173274], [66.84799280930167, 29.656890254081485], [66.96738998751542, 29.83284399039648], [66.91083342941417, 29.971093354643976]]}}, {"type": "Feature", "properties": {"slip_type": "Anticline", "fs_name": "Makran Thrust Belt", "catalog_na": "HimaTibetMap"}, "geometry": {"type": "LineString", "coordinates": [[67.55180775456165, 29.77628743229523], [67.77803398696665, 29.77628743229523], [67.90371522719164, 29.78257149430648], [68.00022121963748, 29.753880523579337]]}}, {"type": "Feature", "properties": {"slip_type": "Anticline", "fs_name": "", "catalog_na": "HimaTibetMap"}, "geometry": {"type": "LineString", "coordinates": [[63.42631741340743, 29.382797650604566], [64.01054941825592, 29.417751702176698], [64.45995865275475, 29.517620420954216], [64.79951229659831, 29.717357858509253]]}}, {"type": "Feature", "properties": {"slip_type": "Dextral", "fs_name": "", "catalog_na": "EMME"}, "geometry": {"type": "LineString", "coordinates": [[60.505316, 30.977723], [60.612381, 30.79716], [60.707123, 30.704003], [60.715363, 30.648381], [60.697713, 30.563145], [60.688583, 30.450615], [60.698883, 30.366153], [60.692703, 30.316712], [60.702023, 30.166846], [60.8112, 29.965961], [60.931294, 29.592576], [60.979332, 29.374223], [60.992433, 29.241027], [61.047022, 29.164604], [61.103794, 29.103465], [61.149648, 29.094731], [61.195502, 29.075079], [61.24354, 29.040142]]}}, {"type": "Feature", "properties": {"slip_type": "Reverse", "fs_name": "", "catalog_na": "EMME"}, "geometry": {"type": "LineString", "coordinates": [[66.960432, 29.377403], [67.195604, 29.739006], [67.198617, 29.818507], [67.140986, 29.993267], [67.196106, 30.053257], [67.225456, 30.137479]]}}, {"type": "Feature", "properties": {"slip_type": "Sinistral", "fs_name": "", "catalog_na": "EMME"}, "geometry": {"type": "LineString", "coordinates": [[66.248201, 29.135248], [66.407528, 29.699752], [66.656566, 30.249514], [66.788768, 30.463865], [66.933143, 30.720654]]}}, {"type": "Feature", "properties": {"slip_type": "Anticline", "fs_name": "", "catalog_na": "HimaTibetMap"}, "geometry": {"type": "LineString", "coordinates": [[66.76630000315542, 30.021365850733975], [66.88569718136918, 30.17846740101522], [66.94225373947042, 30.222455835093967]]}}, {"type": "Feature", "properties": {"slip_type": "Anticline", "fs_name": "Makran Thrust Belt", "catalog_na": "HimaTibetMap"}, "geometry": {"type": "LineString", "coordinates": [[67.71519336685415, 30.335568951296466], [67.91628335121415, 30.235023959116468]]}}, {"type": "Feature", "properties": {"slip_type": "Anticline", "fs_name": "Makran Thrust Belt", "catalog_na": "HimaTibetMap"}, "geometry": {"type": "LineString", "coordinates": [[67.12449153779667, 30.341853013307716], [67.30044527411167, 30.398409571408962], [67.51410338249416, 30.335568951296466], [67.70262524283166, 30.335568951296466]]}}, {"type": "Feature", "properties": {"slip_type": "Anticline", "fs_name": "Makran Thrust Belt", "catalog_na": "HimaTibetMap"}, "geometry": {"type": "LineString", "coordinates": [[66.99881029757167, 30.373273323363964], [67.15591184785292, 30.49895456358896], [67.3192974601454, 30.53037487364521]]}}, {"type": "Feature", "properties": {"slip_type": "Reverse", "fs_name": "", "catalog_na": "EMME"}, "geometry": {"type": "LineString", "coordinates": [[68.00022121963748, 30.552352519550332], [67.436764, 30.610877]]}}, {"type": "Feature", "properties": {"slip_type": "Anticline", "fs_name": "", "catalog_na": "HimaTibetMap"}, "geometry": {"type": "LineString", "coordinates": [[66.49465146573031, 30.537355957107167], [66.6475015255741, 30.70892235080937]]}}, {"type": "Feature", "properties": {"slip_type": "Dextral", "fs_name": "", "catalog_na": "EMME"}, "geometry": {"type": "LineString", "coordinates": [[60.136795, 30.354642], [60.137988, 30.318841], [60.106961, 30.191153], [60.132021, 30.026471], [60.121281, 29.991863], [60.173789, 29.857015], [60.198849, 29.810474]]}}, {"type": "Feature", "properties": {"slip_type": "Dextral", "fs_name": "", "catalog_na": "EMME"}, "geometry": {"type": "LineString", "coordinates": [[59.999735467740614, 30.95344704538152], [60.021608, 31.026357], [60.014919, 31.067833], [60.022946, 31.10797], [60.02027, 31.38358], [59.999735467740614, 31.48127348987599]]}}, {"type": "Feature", "properties": {"slip_type": "Anticline", "fs_name": "Makran Thrust Belt", "catalog_na": "HimaTibetMap"}, "geometry": {"type": "LineString", "coordinates": [[67.06165091768418, 30.56179518370146], [67.4575468243929, 30.8571460982302], [67.6712049327754, 30.92627078035395]]}}, {"type": "Feature", "properties": {"slip_type": "Anticline", "fs_name": "", "catalog_na": "HimaTibetMap"}, "geometry": {"type": "LineString", "coordinates": [[66.70053113817296, 30.774429519313845], [66.76291891770103, 30.88048874451157], [66.86273936494595, 30.952234690968858]]}}, {"type": "Feature", "properties": {"slip_type": "Anticline", "fs_name": "Makran Thrust Belt", "catalog_na": "HimaTibetMap"}, "geometry": {"type": "LineString", "coordinates": [[66.97367404952668, 30.8948504702977], [67.53923963053916, 30.98911140046645], [68.00022121963748, 30.970259214432698]]}}, {"type": "Feature", "properties": {"slip_type": "Anticline", "fs_name": "Makran Thrust Belt", "catalog_na": "HimaTibetMap"}, "geometry": {"type": "LineString", "coordinates": [[66.77227708463025, 30.736996851597002], [66.86897814289875, 30.846175465771132], [66.98127614604928, 30.936637746086838], [67.05614148148298, 31.027100026402543], [67.16532009565711, 31.09884597285983], [67.29009565471326, 31.154994974435095], [67.4086324358166, 31.18306947522273]]}}, {"type": "Feature", "properties": {"slip_type": "Anticline", "fs_name": "Makran Thrust Belt", "catalog_na": "HimaTibetMap"}, "geometry": {"type": "LineString", "coordinates": [[67.20618434394292, 31.215337632871442], [67.57694400260665, 31.372439183152686], [67.9099992892029, 31.454131989298933]]}}, {"type": "Feature", "properties": {"slip_type": "Reverse", "fs_name": "", "catalog_na": "EMME"}, "geometry": {"type": "LineString", "coordinates": [[68.00022121963748, 30.851268898477304], [67.883234, 30.858558], [67.629251, 30.793108], [67.303953, 30.653454]]}}, {"type": "Feature", "properties": {"slip_type": "Anticline", "fs_name": "", "catalog_na": "HimaTibetMap"}, "geometry": {"type": "LineString", "coordinates": [[66.03922067517537, 31.401426703570987], [66.18583195706636, 31.52308287365073]]}}, {"type": "Feature", "properties": {"slip_type": "Anticline", "fs_name": "Makran Thrust Belt", "catalog_na": "HimaTibetMap"}, "geometry": {"type": "LineString", "coordinates": [[66.83466486415831, 31.56675431932038], [66.92512714447402, 31.60730637601363], [67.02182820274254, 31.629142098848455], [67.10917109408184, 31.63538087680126]]}}, {"type": "Feature", "properties": {"slip_type": "Anticline", "fs_name": "", "catalog_na": "HimaTibetMap"}, "geometry": {"type": "LineString", "coordinates": [[66.25757790352364, 31.572993097273187], [66.34492079486294, 31.647858432706876]]}}, {"type": "Feature", "properties": {"slip_type": "Anticline", "fs_name": "", "catalog_na": "HimaTibetMap"}, "geometry": {"type": "LineString", "coordinates": [[66.43850246415505, 31.682171711447317], [66.58511374604602, 31.76015643585741], [66.61006885785726, 31.79446971459785]]}}, {"type": "Feature", "properties": {"slip_type": "Anticline", "fs_name": "", "catalog_na": "HimaTibetMap"}, "geometry": {"type": "LineString", "coordinates": [[66.33556262793373, 31.71960437916416], [66.45409940903707, 31.757037046881006], [66.53208413344716, 31.79446971459785]]}}, {"type": "Feature", "properties": {"slip_type": "Dextral", "fs_name": "", "catalog_na": "EMME"}, "geometry": {"type": "LineString", "coordinates": [[60.459311, 31.062924], [60.350174, 31.396057], [60.352035, 31.538863], [60.236186, 31.699972], [60.246363, 31.777032], [60.304522, 31.939877], [60.30143578782482, 32.000056545490835]]}}, {"type": "Feature", "properties": {"slip_type": "Anticline", "fs_name": "", "catalog_na": "HimaTibetMap"}, "geometry": {"type": "LineString", "coordinates": [[65.65241644210133, 31.644739043730475], [65.78655016808668, 31.757037046881006]]}}, {"type": "Feature", "properties": {"slip_type": "Anticline", "fs_name": "", "catalog_na": "HimaTibetMap"}, "geometry": {"type": "LineString", "coordinates": [[66.59447191297524, 31.822544215385484], [66.68181480431454, 31.878693216960748], [66.70676991612577, 31.90364832877198]]}}, {"type": "Feature", "properties": {"slip_type": "Sinistral-Normal", "fs_name": "", "catalog_na": "EMME"}, "geometry": {"type": "LineString", "coordinates": [[66.787356, 31.498965], [66.944905, 31.740471], [67.15896828640275, 32.000056545490835]]}}, {"type": "Feature", "properties": {"slip_type": "Sinistral-Normal", "fs_name": "", "catalog_na": "EMME"}, "geometry": {"type": "LineString", "coordinates": [[66.611053, 31.969823], [66.66903624619445, 32.000056545490835]]}}]}