{"type": "FeatureCollection", "features": [{"type": "Feature", "properties": {"NAME": "Makran", "CODE": "8021"}, "geometry": {"type": "Polygon", "coordinates": [[[65.23534868235537, 28.400373643676556], [65.22248494359519, 28.1135453941742], [65.20167836265878, 28.030279499001743], [65.17894789392538, 27.818608330291273], [65.1921100494381, 27.585764933621984], [65.3040646653977, 27.520764802186292], [65.45262789356224, 27.493415518191107], [65.53396835254298, 27.17240167219955], [65.55156689879752, 26.863168847498454], [65.66950817313239, 26.657560460218896], [65.7462305585937, 26.364955237997137], [65.81562177251811, 26.186785441109368], [65.89824983468112, 26.06725912859239], [65.90969651576265, 25.999759605214493], [59.999735467740614, 25.999759605214493], [59.999735467740614, 26.544292566060797], [60.34422158458908, 26.64722638260578], [60.56177890293161, 26.78570871001524], [60.843591135436164, 26.90372057773213], [60.97663674228231, 26.951998709419236], [62.3185967370933, 27.22020786597776], [62.53457055796311, 27.273850906055902], [62.82252061996947, 27.37068115649027], [62.836710029536015, 27.37267562111931], [63.00090123550817, 27.32432694967389], [63.15247451478406, 27.33444289709666], [63.48954617626722, 27.40188026922161], [63.60954757075124, 27.437101889179733], [63.686250749533905, 27.447190672700874], [63.82440900293675, 27.44235550140987], [63.98358775413792, 27.488882478974627], [64.3615738559, 27.698936214343174], [64.5285394248991, 27.76123923949788], [64.58287574951476, 27.80006320013984], [64.67515481599138, 27.883965365231337], [64.79505956576769, 27.949487104195132], [64.86825198483568, 28.013326703963315], [64.89180099603257, 28.04926763805136], [64.97181562311985, 28.230763022225215], [65.01497165189066, 28.31006409463495], [65.05495871100688, 28.36565194482592], [65.14590850333758, 28.4413277257401], [65.25535303231679, 28.47172321364143], [65.23534868235537, 28.400373643676556]]]}}, {"type": "Feature", "properties": {"NAME": "Indus", "CODE": "8042"}, "geometry": {"type": "MultiPolygon", "coordinates": [[[[65.89824983468112, 26.06725912859239], [65.81562177251811, 26.186785441109368], [65.7462305585937, 26.364955237997137], [65.66950817313239, 26.657560460218896], [65.86702386036929, 26.509081704627476], [65.94455417642624, 26.481858085799676], [65.98652895269962, 26.44121528331566], [66.029387250084, 26.34086424279233], [66.05322941539802, 26.270098715217816], [66.06177353961819, 26.224036860411527], [66.10940375484329, 26.160459819166853], [66.19422726745712, 26.09477501271311], [66.2768375192302, 25.999759605214493], [65.90969651576265, 25.999759605214493], [65.89824983468112, 26.06725912859239]]], [[[67.07154711469883, 26.062841165760588], [67.09387416340266, 26.168459947021635], [67.02053523660608, 26.526340302056568], [67.07483114593946, 26.566920155692674], [67.14601630522937, 26.510100488595835], [67.22164119133136, 26.35491957159455], [67.29068151309185, 26.316065290210336], [67.29653338354034, 26.37623513384366], [67.3140939771581, 26.442490130369094], [67.28261184970664, 26.50500480262322], [67.22991420758258, 26.534730767526927], [67.17550278070351, 26.57989142474435], [67.14306395955713, 26.65010574622953], [67.11640656898933, 26.751927435039512], [67.12409506982964, 26.85120633559626], [67.11659139444146, 27.01813763936193], [67.12198887208261, 27.166588933294857], [67.17602535274067, 27.240856465202437], [67.23379289872575, 27.281625133303443], [67.27728429033886, 27.339467965901065], [67.28262096620543, 27.69048766073815], [67.19555016460956, 27.772197210412745], [67.1706460617245, 27.884597397530552], [67.16378521525974, 27.97499719252217], [67.09240916293804, 28.124131795098567], [67.03104206635025, 28.140214071588932], [66.98664772688723, 28.47981385494527], [66.95094298585218, 28.573228743701026], [66.96014553679473, 28.631118340745978], [66.95582833663455, 28.752953454416982], [66.97675717061834, 28.790953318180712], [67.06563787612143, 28.841940042113443], [67.09172193762312, 28.89071474262438], [67.09586791219492, 28.966416000756297], [67.1216648342788, 29.046362265379024], [67.16435633243924, 29.088585687355714], [67.22359167902547, 29.181435511747612], [67.29661797400543, 29.236296653028223], [67.36598485757781, 29.267454120964175], [67.43341437803612, 29.31663730479903], [67.49349176907948, 29.375652055061813], [67.64151658154094, 29.383844724989693], [67.84506209771615, 29.34648727627752], [67.92321426376846, 29.32605011883627], [67.96903418493554, 29.251323363591727], [67.98698993956822, 29.20061628969686], [68.00022121963748, 29.19172701000263], [68.00022121963748, 25.999759605214493], [67.03351703392552, 25.999759605214493], [67.07154711469883, 26.062841165760588]]]]}}, {"type": "Feature", "properties": {"NAME": "Sulaiman-Kirthar", "CODE": "8025"}, "geometry": {"type": "Polygon", "coordinates": [[[67.98698993956822, 29.20061628969686], [67.96903418493554, 29.251323363591727], [67.92321426376846, 29.32605011883627], [67.84506209771615, 29.34648727627752], [67.64151658154094, 29.383844724989693], [67.49349176907948, 29.375652055061813], [67.43341437803612, 29.31663730479903], [67.36598485757781, 29.267454120964175], [67.29661797400543, 29.236296653028223], [67.22359167902547, 29.181435511747612], [67.16435633243924, 29.088585687355714], [67.1216648342788, 29.046362265379024], [67.09586791219492, 28.966416000756297], [67.09172193762312, 28.89071474262438], [67.06563787612143, 28.841940042113443], [66.97675717061834, 28.790953318180712], [66.95582833663455, 28.752953454416982], [66.96014553679473, 28.631118340745978], [66.95094298585218, 28.573228743701026], [66.98664772688723, 28.47981385494527], [67.03104206635025, 28.140214071588932], [67.09240916293804, 28.124131795098567], [67.16378521525974, 27.97499719252217], [67.1706460617245, 27.884597397530552], [67.19555016460956, 27.772197210412745], [67.28262096620543, 27.69048766073815], [67.27728429033886, 27.339467965901065], [67.23379289872575, 27.281625133303443], [67.17602535274067, 27.240856465202437], [67.12198887208261, 27.166588933294857], [67.11659139444146, 27.01813763936193], [67.12409506982964, 26.85120633559626], [67.11640656898933, 26.751927435039512], [67.14306395955713, 26.65010574622953], [67.17550278070351, 26.57989142474435], [67.22991420758258, 26.534730767526927], [67.28261184970664, 26.50500480262322], [67.3140939771581, 26.442490130369094], [67.29653338354034, 26.37623513384366], [67.29068151309185, 26.316065290210336], [67.22164119133136, 26.35491957159455], [67.14601630522937, 26.510100488595835], [67.07483114593946, 26.566920155692674], [67.02053523660608, 26.526340302056568], [67.09387416340266, 26.168459947021635], [67.07154711469883, 26.062841165760588], [67.03351703392552, 25.999759605214493], [66.2768375192302, 25.999759605214493], [66.19422726745712, 26.09477501271311], [66.10940375484329, 26.160459819166853], [66.06177353961819, 26.224036860411527], [66.05322941539802, 26.270098715217816], [66.029387250084, 26.34086424279233], [65.98652895269962, 26.44121528331566], [65.94455417642624, 26.481858085799676], [65.86702386036929, 26.509081704627476], [65.66950817313239, 26.657560460218896], [65.55156689879752, 26.863168847498454], [65.53396835254298, 27.17240167219955], [65.45262789356224, 27.493415518191107], [65.3040646653977, 27.520764802186292], [65.1921100494381, 27.585764933621984], [65.17894789392538, 27.818608330291273], [65.20167836265878, 28.030279499001743], [65.22248494359519, 28.1135453941742], [65.23534868235537, 28.400373643676556], [65.25535303231679, 28.47172321364143], [65.36039183237926, 28.574517195645264], [65.47158989642854, 28.767537290771834], [65.69490627460351, 28.887997058602302], [65.75070880733851, 29.164615455493287], [65.76722188406342, 29.210240205031383], [65.9219055187185, 29.376000788735954], [66.01328134370897, 29.43297387948104], [66.04205765458207, 29.57457831015201], [66.16638376028267, 29.755192484926386], [66.26257816684742, 29.914588691255503], [66.33283274377182, 29.993110018887474], [66.3627944981675, 30.035854722080376], [66.37428170146252, 30.073219168701847], [66.37321187166368, 30.13562505098406], [66.42223663495547, 30.23325777010325], [66.4747652227882, 30.295348833991568], [66.50666766741253, 30.390313022058578], [66.5678594761747, 30.400318008152603], [66.6277925056724, 30.380253444739346], [66.7215280076584, 30.426587554793425], [66.77075995978392, 30.44340587497073], [66.87163615843768, 30.53968497756363], [67.01958775520323, 30.589977613828463], [67.14785844383061, 30.659502490913777], [67.23728751211084, 30.647926453725972], [67.58494644739318, 30.742996174529576], [67.68155892798586, 30.75383611097682], [67.80599128144851, 30.804344418028307], [67.89652396576398, 30.827647985241597], [68.00022121963748, 30.83608850733145], [68.00022121963748, 29.19172701000263], [67.98698993956822, 29.20061628969686]]]}}, {"type": "Feature", "properties": {"NAME": "Baluchistan", "CODE": "8022"}, "geometry": {"type": "Polygon", "coordinates": [[[63.51473729034141, 31.96092872542742], [63.56472954627463, 31.929164350764783], [63.656792702784045, 31.91961307910395], [63.74754592487935, 31.91901675419114], [63.79096887198389, 31.93220439905334], [63.87527662511326, 31.97656009366538], [63.95021178972353, 32.000056545490835], [64.47164246075005, 32.000056545490835], [64.46602485519811, 31.966585753654233], [64.48839302947935, 31.80443775726301], [64.5969822457123, 31.636370700237094], [64.69398205257717, 31.613617963126153], [64.84748212293495, 31.603606617017483], [64.97803901577385, 31.610599926823284], [65.18760363835486, 31.55207185445866], [65.37165799977144, 31.534989554180044], [65.47671555954747, 31.507409526962928], [65.62092111852806, 31.437502518604024], [65.65518870333491, 31.359132378556268], [65.69405100145833, 31.216006091110664], [65.72766689880845, 31.12778626701737], [65.7079497938334, 31.01697257840693], [65.61940454205258, 30.91863537690796], [65.61547540646329, 30.772767453558433], [65.63142817808945, 30.64677971345067], [65.5985470724702, 30.553098278416126], [65.54436786526236, 30.2758080086874], [65.54930523208829, 30.148976698262526], [65.57170136811564, 30.05998767983554], [65.66237503142395, 29.95857015743126], [65.80881738655418, 29.918567031698473], [65.53867081023128, 29.182506826318043], [65.4440669635686, 28.97922484922109], [65.32528599086767, 28.695731426492866], [65.25535303231679, 28.47172321364143], [65.14590850333758, 28.4413277257401], [65.05495871100688, 28.36565194482592], [65.01497165189066, 28.31006409463495], [64.97181562311985, 28.230763022225215], [64.89180099603257, 28.04926763805136], [64.86825198483568, 28.013326703963315], [64.79505956576769, 27.949487104195132], [64.67515481599138, 27.883965365231337], [64.58287574951476, 27.80006320013984], [64.5285394248991, 27.76123923949788], [64.3615738559, 27.698936214343174], [63.98358775413792, 27.488882478974627], [63.82440900293675, 27.44235550140987], [63.686250749533905, 27.447190672700874], [63.60954757075124, 27.437101889179733], [63.48954617626722, 27.40188026922161], [63.15247451478406, 27.33444289709666], [63.00090123550817, 27.32432694967389], [62.836710029536015, 27.37267562111931], [62.72550492760756, 27.388506432285947], [62.629887888827255, 27.419462940861482], [62.33968653041276, 27.762720376572403], [61.858759189462724, 28.546806875179612], [61.628581808701846, 28.975918962033006], [61.547971864143136, 29.162059885442126], [61.407452098700624, 29.361014733124872], [61.3516200182749, 29.450614523018043], [60.99498318770672, 29.943805209119823], [60.95321001083595, 30.032843606610435], [60.95193874622688, 31.06992840628899], [60.856899318182954, 32.000056545490835], [63.48529870200946, 32.000056545490835], [63.51473729034141, 31.96092872542742]]]}}, {"type": "Feature", "properties": {"NAME": "Lut Block and Depression", "CODE": "2093"}, "geometry": {"type": "Polygon", "coordinates": [[[60.856899318182954, 32.000056545490835], [60.95193874622688, 31.06992840628899], [60.95321001083595, 30.032843606610435], [60.99498318770672, 29.943805209119823], [61.3516200182749, 29.450614523018043], [61.407452098700624, 29.361014733124872], [61.547971864143136, 29.162059885442126], [61.628581808701846, 28.975918962033006], [61.858759189462724, 28.546806875179612], [62.33968653041276, 27.762720376572403], [62.629887888827255, 27.419462940861482], [62.72550492760756, 27.388506432285947], [62.82252061996947, 27.37068115649027], [62.53457055796311, 27.273850906055902], [62.3185967370933, 27.22020786597776], [60.97663674228231, 26.951998709419236], [60.843591135436164, 26.90372057773213], [60.56177890293161, 26.78570871001524], [60.34422158458908, 26.64722638260578], [59.999735467740614, 26.544292566060797], [59.999735467740614, 32.000056545490835], [60.856899318182954, 32.000056545490835]]]}}, {"type": "Feature", "properties": {"NAME": "Afghan", "CODE": "8024"}, "geometry": {"type": "Polygon", "coordinates": [[[67.89652396576398, 30.827647985241597], [67.80599128144851, 30.804344418028307], [67.68155892798586, 30.75383611097682], [67.58494644739318, 30.742996174529576], [67.23728751211084, 30.647926453725972], [67.14785844383061, 30.659502490913777], [67.01958775520323, 30.589977613828463], [66.87163615843768, 30.53968497756363], [66.77075995978392, 30.44340587497073], [66.7215280076584, 30.426587554793425], [66.6277925056724, 30.380253444739346], [66.5678594761747, 30.400318008152603], [66.50666766741253, 30.390313022058578], [66.4747652227882, 30.295348833991568], [66.42223663495547, 30.23325777010325], [66.37321187166368, 30.13562505098406], [66.37428170146252, 30.073219168701847], [66.3627944981675, 30.035854722080376], [66.33283274377182, 29.993110018887474], [66.26257816684742, 29.914588691255503], [66.16638376028267, 29.755192484926386], [66.04205765458207, 29.57457831015201], [66.01328134370897, 29.43297387948104], [65.9219055187185, 29.376000788735954], [65.76722188406342, 29.210240205031383], [65.75070880733851, 29.164615455493287], [65.69490627460351, 28.887997058602302], [65.47158989642854, 28.767537290771834], [65.36039183237926, 28.574517195645264], [65.25535303231679, 28.47172321364143], [65.32528599086767, 28.695731426492866], [65.4440669635686, 28.97922484922109], [65.53867081023128, 29.182506826318043], [65.80881738655418, 29.918567031698473], [65.85122414006443, 30.155187375309755], [66.03146950550732, 30.482586521970525], [66.12296251613786, 30.677618895727136], [66.15840961591663, 30.834250449784165], [66.24786846066179, 30.95741402209126], [66.29114041593543, 31.078179903055144], [66.34229662866053, 31.134382757789023], [66.438181752377, 31.194088116901764], [66.91577930162293, 31.715975022563388], [66.93724423166786, 31.75411880451085], [67.01725513008172, 31.846226476400144], [67.12222040076287, 31.94798316560306], [67.14557472644417, 32.000056545490835], [68.00022121963748, 32.000056545490835], [68.00022121963748, 30.83608850733145], [67.89652396576398, 30.827647985241597]]]}}, {"type": "Feature", "properties": {"NAME": "Southeast Afghanistan", "CODE": "8001"}, "geometry": {"type": "MultiPolygon", "coordinates": [[[[67.12222040076287, 31.94798316560306], [67.01725513008172, 31.846226476400144], [66.93724423166786, 31.75411880451085], [66.91577930162293, 31.715975022563388], [66.438181752377, 31.194088116901764], [66.34229662866053, 31.134382757789023], [66.29114041593543, 31.078179903055144], [66.24786846066179, 30.95741402209126], [66.15840961591663, 30.834250449784165], [66.12296251613786, 30.677618895727136], [66.03146950550732, 30.482586521970525], [65.85122414006443, 30.155187375309755], [65.80881738655418, 29.918567031698473], [65.66237503142395, 29.95857015743126], [65.57170136811564, 30.05998767983554], [65.54930523208829, 30.148976698262526], [65.54436786526236, 30.2758080086874], [65.5985470724702, 30.553098278416126], [65.63142817808945, 30.64677971345067], [65.61547540646329, 30.772767453558433], [65.61940454205258, 30.91863537690796], [65.7079497938334, 31.01697257840693], [65.72766689880845, 31.12778626701737], [65.69405100145833, 31.216006091110664], [65.65518870333491, 31.359132378556268], [65.62092111852806, 31.437502518604024], [65.47671555954747, 31.507409526962928], [65.37165799977144, 31.534989554180044], [65.18760363835486, 31.55207185445866], [64.97803901577385, 31.610599926823284], [64.84748212293495, 31.603606617017483], [64.69398205257717, 31.613617963126153], [64.5969822457123, 31.636370700237094], [64.48839302947935, 31.80443775726301], [64.46602485519811, 31.966585753654233], [64.47164246075005, 32.000056545490835], [67.14557472644417, 32.000056545490835], [67.12222040076287, 31.94798316560306]]], [[[63.87527662511326, 31.97656009366538], [63.79096887198389, 31.93220439905334], [63.74754592487935, 31.91901675419114], [63.656792702784045, 31.91961307910395], [63.56472954627463, 31.929164350764783], [63.51473729034141, 31.96092872542742], [63.48529870200946, 32.000056545490835], [63.95021178972353, 32.000056545490835], [63.87527662511326, 31.97656009366538]]]]}}]}